[{"OBJECT_NAME":"STARLINK-36066","OBJECT_ID":"2025-270E","EPOCH":"2026-03-09T22:53:39.207264","MEAN_MOTION":15.27618932,"ECCENTRICITY":0.00014596,"INCLINATION":42.9982,"RA_OF_ASC_NODE":54.9138,"ARG_OF_PERICENTER":216.5713,"MEAN_ANOMALY":143.504,"EPHEMERIS_TYPE":0,"CLASSIFICATION_TYPE":"U","NORAD_CAT_ID":66592,"ELEMENT_SET_NO":999,"REV_AT_EPOCH":1764,"BSTAR":0.00094099515,"MEAN_MOTION_DOT":0.00025753,"MEAN_MOTION_DDOT":0},{"OBJECT_NAME":"CZ-6A DEB","OBJECT_ID":"2022-151SD","EPOCH":"2026-03-09T21:25:15.700512","MEAN_MOTION":15.24469357,"ECCENTRICITY":0.00248717,"INCLINATION":98.6538,"RA_OF_ASC_NODE":157.5128,"ARG_OF_PERICENTER":174.047,"MEAN_ANOMALY":186.1065,"EPHEMERIS_TYPE":0,"CLASSIFICATION_TYPE":"U","NORAD_CAT_ID":54940,"ELEMENT_SET_NO":999,"REV_AT_EPOCH":17680,"BSTAR":0.0087519903,"MEAN_MOTION_DOT":0.00223015,"MEAN_MOTION_DDOT":0}]
